{
  "type": "FeatureCollection",
  "features": [
    {
      "type": "Feature",
      "properties": {
        "norad_id": 29770,
        "name": "FENGYUN 1C DEB",
        "group": "fengyun-1c-debris",
        "lat": -77.80878481804824,
        "lon": -149.77038096419176,
        "alt_km": 792.1544266068868,
        "timestamp": "2025-12-26T18:39:32.551457+00:00",
        "meta_object_name": "FENGYUN 1C DEB",
        "meta_object_id": "1999-025BL",
        "meta_epoch": "2025-12-26T04:09:51.945696",
        "meta_mean_motion": 14.20196486,
        "meta_eccentricity": 0.00639968,
        "meta_inclination": 98.8454,
        "meta_ra_of_asc_node": 75.7434,
        "meta_arg_of_pericenter": 232.8744,
        "meta_mean_anomaly": 182.2688,
        "meta_ephemeris_type": 0,
        "meta_classification_type": "U",
        "meta_norad_cat_id": 29770,
        "meta_element_set_no": 999,
        "meta_rev_at_epoch": 97277,
        "meta_bstar": 0.0014851234,
        "meta_mean_motion_dot": 3.192e-05,
        "meta_mean_motion_ddot": 0,
        "tle_line1": "1 29770U 99025BL  25360.17351789  .00003192  00000+0  14851-2 0  9992",
        "tle_line2": "2 29770  98.8454  75.7434 0063996 232.8744 182.2688 14.20196486972776"
      },
      "geometry": {
        "type": "Point",
        "coordinates": [
          -149.77038096419176,
          -77.80878481804824
        ]
      }
    },
    {
      "type": "Feature",
      "properties": {
        "norad_id": 29772,
        "name": "FENGYUN 1C DEB",
        "group": "fengyun-1c-debris",
        "lat": 46.05988917395859,
        "lon": -159.91562168916562,
        "alt_km": 968.9172541078087,
        "timestamp": "2025-12-26T18:39:32.551467+00:00",
        "meta_object_name": "FENGYUN 1C DEB",
        "meta_object_id": "1999-025BN",
        "meta_epoch": "2025-12-24T13:39:37.897632",
        "meta_mean_motion": 14.03249705,
        "meta_eccentricity": 0.01369059,
        "meta_inclination": 98.3837,
        "meta_ra_of_asc_node": 206.8509,
        "meta_arg_of_pericenter": 257.2434,
        "meta_mean_anomaly": 159.5842,
        "meta_ephemeris_type": 0,
        "meta_classification_type": "U",
        "meta_norad_cat_id": 29772,
        "meta_element_set_no": 999,
        "meta_rev_at_epoch": 96421,
        "meta_bstar": 0.00095382365,
        "meta_mean_motion_dot": 1.576e-05,
        "meta_mean_motion_ddot": 0,
        "tle_line1": "1 29772U 99025BN  25358.56918863  .00001576  00000+0  95382-3 0  9999",
        "tle_line2": "2 29772  98.3837 206.8509 0136905 257.2434 159.5842 14.03249705964219"
      },
      "geometry": {
        "type": "Point",
        "coordinates": [
          -159.91562168916562,
          46.05988917395859
        ]
      }
    },
    {
      "type": "Feature",
      "properties": {
        "norad_id": 29773,
        "name": "FENGYUN 1C DEB",
        "group": "fengyun-1c-debris",
        "lat": -61.57306891182186,
        "lon": -42.22335966438991,
        "alt_km": 773.7187441456254,
        "timestamp": "2025-12-26T18:39:32.551478+00:00",
        "meta_object_name": "FENGYUN 1C DEB",
        "meta_object_id": "1999-025BP",
        "meta_epoch": "2025-12-25T16:22:28.427808",
        "meta_mean_motion": 14.27594494,
        "meta_eccentricity": 0.0046539,
        "meta_inclination": 98.9879,
        "meta_ra_of_asc_node": 153.6516,
        "meta_arg_of_pericenter": 252.724,
        "meta_mean_anomaly": 124.8259,
        "meta_ephemeris_type": 0,
        "meta_classification_type": "U",
        "meta_norad_cat_id": 29773,
        "meta_element_set_no": 999,
        "meta_rev_at_epoch": 98382,
        "meta_bstar": 0.00041046811,
        "meta_mean_motion_dot": 9.75e-06,
        "meta_mean_motion_ddot": 0,
        "tle_line1": "1 29773U 99025BP  25359.68227347  .00000975  00000+0  41047-3 0  9995",
        "tle_line2": "2 29773  98.9879 153.6516 0046539 252.7240 124.8259 14.27594494983826"
      },
      "geometry": {
        "type": "Point",
        "coordinates": [
          -42.22335966438991,
          -61.57306891182186
        ]
      }
    },
    {
      "type": "Feature",
      "properties": {
        "norad_id": 29774,
        "name": "FENGYUN 1C DEB",
        "group": "fengyun-1c-debris",
        "lat": -34.938188348028866,
        "lon": -52.05903789147103,
        "alt_km": 840.1233229037862,
        "timestamp": "2025-12-26T18:39:32.551488+00:00",
        "meta_object_name": "FENGYUN 1C DEB",
        "meta_object_id": "1999-025BQ",
        "meta_epoch": "2025-12-26T10:56:52.026144",
        "meta_mean_motion": 14.22743669,
        "meta_eccentricity": 0.0051355,
        "meta_inclination": 99.0782,
        "meta_ra_of_asc_node": 301.1969,
        "meta_arg_of_pericenter": 84.7062,
        "meta_mean_anomaly": 35.71,
        "meta_ephemeris_type": 0,
        "meta_classification_type": "U",
        "meta_norad_cat_id": 29774,
        "meta_element_set_no": 999,
        "meta_rev_at_epoch": 98270,
        "meta_bstar": 0.00020059798,
        "meta_mean_motion_dot": 4.09e-06,
        "meta_mean_motion_ddot": 0,
        "tle_line1": "1 29774U 99025BQ  25360.45615771  .00000409  00000+0  20060-3 0  9999",
        "tle_line2": "2 29774  99.0782 301.1969 0051355  84.7062  35.7100 14.22743669982707"
      },
      "geometry": {
        "type": "Point",
        "coordinates": [
          -52.05903789147103,
          -34.938188348028866
        ]
      }
    },
    {
      "type": "Feature",
      "properties": {
        "norad_id": 29776,
        "name": "FENGYUN 1C DEB",
        "group": "fengyun-1c-debris",
        "lat": 3.302321919510496,
        "lon": -152.36377882275568,
        "alt_km": 859.4282239225531,
        "timestamp": "2025-12-26T18:39:32.551498+00:00",
        "meta_object_name": "FENGYUN 1C DEB",
        "meta_object_id": "1999-025BS",
        "meta_epoch": "2025-12-26T01:01:20.202816",
        "meta_mean_motion": 14.07782196,
        "meta_eccentricity": 0.00230736,
        "meta_inclination": 98.7699,
        "meta_ra_of_asc_node": 26.4123,
        "meta_arg_of_pericenter": 231.9993,
        "meta_mean_anomaly": 182.5173,
        "meta_ephemeris_type": 0,
        "meta_classification_type": "U",
        "meta_norad_cat_id": 29776,
        "meta_element_set_no": 999,
        "meta_rev_at_epoch": 97267,
        "meta_bstar": 0.00010482479,
        "meta_mean_motion_dot": 1.35e-06,
        "meta_mean_motion_ddot": 0,
        "tle_line1": "1 29776U 99025BS  25360.04259494  .00000135  00000+0  10482-3 0  9995",
        "tle_line2": "2 29776  98.7699  26.4123 0023073 231.9993 182.5173 14.07782196972673"
      },
      "geometry": {
        "type": "Point",
        "coordinates": [
          -152.36377882275568,
          3.302321919510496
        ]
      }
    },
    {
      "type": "Feature",
      "properties": {
        "norad_id": 29777,
        "name": "FENGYUN 1C DEB",
        "group": "fengyun-1c-debris",
        "lat": 27.694463201519966,
        "lon": -117.41952251464832,
        "alt_km": 855.9039630286879,
        "timestamp": "2025-12-26T18:39:32.551509+00:00",
        "meta_object_name": "FENGYUN 1C DEB",
        "meta_object_id": "1999-025BT",
        "meta_epoch": "2025-12-26T11:07:09.988320",
        "meta_mean_motion": 13.92110283,
        "meta_eccentricity": 0.0093272,
        "meta_inclination": 99.2817,
        "meta_ra_of_asc_node": 57.342,
        "meta_arg_of_pericenter": 172.6362,
        "meta_mean_anomaly": 205.9896,
        "meta_ephemeris_type": 0,
        "meta_classification_type": "U",
        "meta_norad_cat_id": 29777,
        "meta_element_set_no": 999,
        "meta_rev_at_epoch": 96232,
        "meta_bstar": 0.00020633381,
        "meta_mean_motion_dot": 2.29e-06,
        "meta_mean_motion_ddot": 0,
        "tle_line1": "1 29777U 99025BT  25360.46331005  .00000229  00000+0  20633-3 0  9994",
        "tle_line2": "2 29777  99.2817  57.3420 0093272 172.6362 205.9896 13.92110283962322"
      },
      "geometry": {
        "type": "Point",
        "coordinates": [
          -117.41952251464832,
          27.694463201519966
        ]
      }
    },
    {
      "type": "Feature",
      "properties": {
        "norad_id": 29779,
        "name": "FENGYUN 1C DEB",
        "group": "fengyun-1c-debris",
        "lat": 69.65188817046965,
        "lon": -144.09202265108027,
        "alt_km": 796.2897785305113,
        "timestamp": "2025-12-26T18:39:32.551519+00:00",
        "meta_object_name": "FENGYUN 1C DEB",
        "meta_object_id": "1999-025BV",
        "meta_epoch": "2025-12-26T11:21:14.556960",
        "meta_mean_motion": 14.13454661,
        "meta_eccentricity": 0.00640413,
        "meta_inclination": 98.6769,
        "meta_ra_of_asc_node": 11.2977,
        "meta_arg_of_pericenter": 125.3637,
        "meta_mean_anomaly": 235.3543,
        "meta_ephemeris_type": 0,
        "meta_classification_type": "U",
        "meta_norad_cat_id": 29779,
        "meta_element_set_no": 999,
        "meta_rev_at_epoch": 97606,
        "meta_bstar": 0.00022578849,
        "meta_mean_motion_dot": 3.91e-06,
        "meta_mean_motion_ddot": 0,
        "tle_line1": "1 29779U 99025BV  25360.47308515  .00000391  00000+0  22579-3 0  9998",
        "tle_line2": "2 29779  98.6769  11.2977 0064041 125.3637 235.3543 14.13454661976068"
      },
      "geometry": {
        "type": "Point",
        "coordinates": [
          -144.09202265108027,
          69.65188817046965
        ]
      }
    }
  ]
}